IRIDIUM 33 DEB          
1 35618U 97051QQ  26197.90236417  .00000602  00000+0  13954-3 0  9994
2 35618  86.3376 258.8942 0028555  16.6838 343.5301 14.53118964685328
IRIDIUM 33 DEB          
1 35620U 97051QS  26197.07240493  .00002889  00000+0  78738-3 0  9994
2 35620  86.3862 126.3146 0126797 271.8975  86.7708 14.42436179630663
IRIDIUM 33 DEB          
1 35622U 97051QU  26198.64522873  .00085819  00000+0  27112-2 0  9998
2 35622  86.1834 154.5040 0014382 127.8327  49.6615 15.32380343906476
IRIDIUM 33 DEB          
1 35625U 97051QX  26196.54535962  .00001929  00000+0  67206-3 0  9990
2 35625  86.1909 288.6859 0102106 224.3863 196.9475 14.32019245691132
IRIDIUM 33 DEB          
1 35628U 97051RA  26195.95856089  .00002829  00000+0  45990-3 0  9999
2 35628  86.3546 273.2493 0008542 319.3029  40.7547 14.70762679895923
IRIDIUM 33 DEB          
1 35631U 97051RD  26198.73726366  .00000337  00000+0  85168-4 0  9990
2 35631  86.3664 287.5032 0018972 115.1483  38.7786 14.47846159903369
IRIDIUM 33 DEB          
1 35680U 97051RJ  26198.01239676  .00000934  00000+0  36422-3 0  9999
2 35680  86.1010 285.5646 0144353 310.3077 171.4330 14.23243679637755
IRIDIUM 33 DEB          
1 35744U 97051RX  26197.55028613  .00002420  00000+0  36517-3 0  9992
2 35744  86.3259 227.6585 0021168 165.3842 194.7993 14.73773710905073
IRIDIUM 33 DEB          
1 35797U 97051SF  26198.39642367  .00004943  00000+0  52479-3 0  9998
2 35797  86.3318 229.8683 0013693 113.7403 246.5261 14.88775814905587
IRIDIUM 33 DEB          
1 35806U 97051SQ  26196.52750077  .00002061  00000+0  42906-3 0  9993
2 35806  86.3459 285.8742 0014901  68.0715 292.2077 14.59520169894559
IRIDIUM 33 DEB          
1 35809U 97051ST  26197.39747757  .00003589  00000+0  46895-3 0  9990
2 35809  86.3233 236.7163 0010783 200.4713 159.6077 14.80171961899937
IRIDIUM 33 DEB          
1 35846U 97051SW  26195.32948771  .00000949  00000+0  27185-3 0  9999
2 35846  86.3773 327.6469 0018067 181.6011 178.5135 14.43941701744109
IRIDIUM 33 DEB          
1 35848U 97051SY  26198.48496817  .00004715  00000+0  56640-3 0  9993
2 35848  86.3860 278.1869 0009602 153.3484 206.8235 14.83753118698995
IRIDIUM 33 DEB          
1 35850U 97051TA  26194.89661598  .00004969  00000+0  59680-3 0  9995
2 35850  86.3456 246.8156 0010585 158.8272 201.3391 14.83767816745139
IRIDIUM 33 DEB          
1 35915U 97051TY  26195.44677110  .00005091  00000+0  57193-3 0  9990
2 35915  86.3395 244.7646 0012181 156.0165 204.1630 14.86499764112557
IRIDIUM 33 DEB          
1 35918U 97051UB  26196.72303421  .00001843  00000+0  44077-3 0  9994
2 35918  86.4034 343.4094 0026623 165.7768 258.4030 14.52903137883274
IRIDIUM 33 DEB          
1 35929U 97051UN  26186.79954360  .00046964  00000+0  21883-2 0  9998
2 35929  86.3391 214.2681 0008493   3.7259 356.4045 15.19668439908763
IRIDIUM 33 DEB          
1 36011U 97051US  26198.55084551  .00000607  00000+0  17888-3 0  9999
2 36011  86.3415 302.2685 0017281 220.3798 197.0869 14.41981895676645
IRIDIUM 33 DEB          
1 36012U 97051UT  26198.03630076  .00001992  00000+0  71279-3 0  9994
2 36012  86.4408 220.0880 0215726 291.9617  65.8771 14.21485118685550
IRIDIUM 33 DEB          
1 36028U 97051VK  26196.74425196  .00014572  00000+0  98413-3 0  9999
2 36028  86.3148 204.6153 0013302   2.0014 358.1272 15.06420368903508
IRIDIUM 33 DEB          
1 36080U 97051VM  26186.55922257  .00002013  00000+0  54245-3 0  9997
2 36080  86.3205 278.6879 0017342 193.0831 166.9925 14.47430522503763
IRIDIUM 33 DEB          
1 36083U 97051VQ  26197.97920363  .00000668  00000+0  18936-3 0  9995
2 36083  86.3439 301.0159 0024711 227.0860 132.8268 14.43963989885696
IRIDIUM 33 DEB          
1 36390U 97051VU  26198.28790170  .00002246  00000+0  31847-3 0  9992
2 36390  86.2896 199.8932 0031537 133.2643 227.1216 14.76206248694543
IRIDIUM 33 DEB          
1 36483U 97051VZ  26197.07766847  .00000775  00000+0  20946-3 0  9998
2 36483  86.3814 320.2757 0011096 127.8483 232.3725 14.46556520682583
IRIDIUM 33 DEB          
1 36490U 97051WG  26198.47570999  .00004665  00000+0  59416-3 0  9998
2 36490  86.3611 272.2269 0003749  75.2635 284.9002 14.81353493896885
IRIDIUM 33 DEB          
1 36493U 97051WK  26198.45473950  .00002328  00000+0  40170-3 0  9999
2 36493  86.3556 275.1397 0008230 336.2192  23.8641 14.68062041776953
IRIDIUM 33 DEB          
1 36497U 97051WP  26194.17148754  .00004728  00000+0  83447-3 0  9999
2 36497  86.1548 154.4843 0048841 112.4857 248.1539 14.66490728687623
IRIDIUM 33 DEB          
1 37136U 97051XG  26184.91862832  .00001600  00000+0  61267-3 0  9993
2 37136  86.1710 248.1008 0077871  55.5849 305.2672 14.28364736673986
IRIDIUM 33 DEB          
1 37548U 97051XH  26181.11194211  .00003703  00000+0  89472-3 0  9992
2 37548  86.3500 316.5040 0022777 241.1042 118.7879 14.52744813684254
IRIDIUM 33 DEB          
1 37550U 97051XK  26195.99018413  .00002863  00000+0  47042-3 0  9998
2 37550  86.3763 288.6530 0005690 103.7525 256.4325 14.70305627894788
IRIDIUM 33 DEB          
1 37562U 97051XX  26197.08833657  .00002003  00000+0  42482-3 0  9997
2 37562  86.3755 309.5454 0026149  99.5373  21.7221 14.58503747894658
IRIDIUM 33 DEB          
1 37565U 97051YA  26198.48231161  .00000772  00000+0  18399-3 0  9998
2 37565  86.3472 275.0787 0014900  78.9232 281.3648 14.52452221689822
IRIDIUM 33 DEB          
1 38017U 97051YD  26198.07957785  .00007452  00000+0  17009-2 0  9991
2 38017  86.3315  71.6427 0079402 101.7960 259.2167 14.53708304645417
IRIDIUM 33 DEB          
1 38022U 97051YJ  26188.54918981  .00002086  00000+0  61185-3 0  9996
2 38022  86.2675 285.7484 0046097  86.5651 274.0821 14.42802459721740
IRIDIUM 33 DEB          
1 38028U 97051YQ  26197.43878390  .00000509  00000+0  13420-3 0  9996
2 38028  86.3234 266.4489 0029958 124.0911 236.3142 14.46784484686134
IRIDIUM 33 DEB          
1 38228U 97051ZC  26195.09602117  .00000381  00000+0  14406-3 0  9993
2 38228  86.2957 317.7522 0062553 221.8428 263.4254 14.27622842878251
IRIDIUM 33 DEB          
1 38241U 97051ZR  26198.45834874  .00001066  00000+0  23665-3 0  9996
2 38241  86.3186 254.8575 0005820  70.9983 289.1855 14.56166558633534
IRIDIUM 33 DEB          
1 38474U 97051AAB 26195.50133340  .00000946  00000+0  22950-3 0  9999
2 38474  86.3448 276.8301 0028436  92.7295 267.7166 14.51644227684183
IRIDIUM 33 DEB          
1 38477U 97051AAE 26196.80540311  .00001388  00000+0  10564-2 0  9994
2 38477  86.4076  25.9418 0394209 333.3934  24.7454 13.62184259576045
IRIDIUM 33 DEB          
1 39777U 97051AAJ 26196.09229147  .00003131  00000+0  61210-3 0  9993
2 39777  85.9557  70.4841 0055176 177.3931 182.7578 14.61598068633113
IRIDIUM 33 DEB          
1 39778U 97051AAK 26197.55580551  .00001394  00000+0  31271-3 0  9998
2 39778  86.3785 309.4163 0007374  37.2726 322.8993 14.55913172638312
IRIDIUM 33 DEB          
1 39781U 97051AAN 26198.65887559  .00002682  00000+0  97914-3 0  9999
2 39781  86.3792 168.3338 0162739 299.7912 240.3209 14.25643864111921
IRIDIUM 33 DEB          
1 40996U 97051ABJ 26197.15496280  .00022744  00000+0  12131-2 0  9998
2 40996  86.3454 259.1656 0000734 333.3393  57.0790 15.15051157657305
IRIDIUM 33 DEB          
1 40998U 97051ABL 26196.11417916  .00000731  00000+0  20036-3 0  9990
2 40998  86.3846 322.0422 0009670  90.3168  33.3456 14.45819658 97787
IRIDIUM 33 DEB          
1 46435U 97051ABN 26197.49562794  .00002290  00000+0  57641-3 0  9993
2 46435  86.2670 100.2925 0196991 288.0613 195.0447 14.39757744110154
IRIDIUM 33 DEB          
1 46734U 97051ABR 26183.54950497  .00002995  00000+0  87773-3 0  9998
2 46734  86.2619 274.1556 0039247  30.1181  27.4005 14.43173540659209
IRIDIUM 33 DEB          
1 46965U 97051ABX 26195.40991978  .00001241  00000+0  24417-3 0  9990
2 46965  86.3319 245.7928 0016957 324.7912  53.5037 14.61741836653889
IRIDIUM 33 DEB          
1 46972U 97051ACE 26192.08951663  .00000974  00000+0  23805-3 0  9998
2 46972  86.3876 308.7971 0011331 119.3591   3.5278 14.51571595646230
IRIDIUM 33 DEB          
1 46974U 97051ACG 26197.22564001  .00004917  00000+0  12379-2 0  9991
2 46974  86.3003  10.8093 0087658 188.4698 171.5032 14.48686467606242
IRIDIUM 33 DEB          
1 46979U 97051ACM 26185.09984075  .00137835  00000+0  74541-2 0  9990
2 46979  86.3189 312.2213 0020231 211.0966 148.9078 15.13879505384791
